NORAD_CAT_ID,OBJECT_NAME,OBJECT_TYPE,EPOCH,MEAN_MOTION,ECCENTRICITY,INCLINATION,RA_OF_ASC_NODE,ARG_OF_PERICENTER,MEAN_ANOMALY,BSTAR,MEAN_MOTION_DOT,MEAN_MOTION_DDOT,TLE_LINE0,TLE_LINE1,TLE_LINE2,SEMIMAJOR_AXIS,PERIOD,APOGEE,PERIGEE,DECAYED
55294.0,STARLINK-5286,PAYLOAD,2023-11-09 14:22:01,14.98318993,0.0002841,70.0042,30.2455,233.9614,126.1282,0.00063885,7.536e-05,0.0,0 STARLINK-5286,1 55294U 23010AB  23313.59862940  .00007536  00000-0  63885-3 0  9990,2 55294  70.0042  30.2455 0002841 233.9614 126.1282 14.98318993 45299,6950.227,96.108,574.066,570.117,0.0
55294.0,STARLINK-5286,PAYLOAD,2023-11-10 11:11:44,14.98363351,0.0002598,70.0038,28.0542,246.1772,113.9115,0.0003482,4.068e-05,0.0,0 STARLINK-5286,1 55294U 23010AB  23314.46648862  .00004068  00000-0  34820-3 0  9996,2 55294  70.0038  28.0542 0002598 246.1772 113.9115 14.98363351 45125,6950.09,96.105,573.76,570.149,0.0
55294.0,STARLINK-5286,PAYLOAD,2023-11-10 14:24:02,14.98332945,0.0003418,70.0016,27.7147,252.1483,107.9303,-3.0868e-05,-4.61e-06,0.0,0 STARLINK-5286,1 55294U 23010AB  23314.60003398 -.00000461  00000-0 -30868-4 0  9995,2 55294  70.0016  27.7147 0003418 252.1483 107.9303 14.98332945 45448,6950.184,96.107,574.424,569.673,0.0
55294.0,STARLINK-5286,PAYLOAD,2023-11-11 11:13:46,14.98346632,0.0003232,70.0009,25.5254,260.3655,99.7139,-8.081e-05,-1.058e-05,0.0,0 STARLINK-5286,1 55294U 23010AB  23315.46790233 -.00001058  00000-0 -80810-4 0  9996,2 55294  70.0009  25.5254 0003232 260.3655  99.7139 14.98346632 45275,6950.141,96.106,574.253,569.76,0.0
55294.0,STARLINK-5286,PAYLOAD,2023-11-11 14:26:02,14.98344093,0.0003281,70.0008,25.189,261.2458,98.8329,-9.1653e-05,-1.187e-05,0.0,0 STARLINK-5286,1 55294U 23010AB  23315.60142301 -.00001187  00000-0 -91653-4 0  9999,2 55294  70.0008  25.1890 0003281 261.2458  98.8329 14.98344093 45596,6950.149,96.106,574.295,569.734,0.0
55294.0,STARLINK-5286,PAYLOAD,2023-11-11 22:26:43,14.98341768,0.0003113,70.0016,24.3453,275.9819,84.0985,-0.00015475,-1.94e-05,0.0,0 STARLINK-5286,1 55294U 23010AB  23315.93522425 -.00001940  00000-0 -15475-3 0  9998,2 55294  70.0016  24.3453 0003113 275.9819  84.0985 14.98341768 45645,6950.156,96.106,574.185,569.858,0.0
55294.0,STARLINK-5286,PAYLOAD,2023-11-12 12:51:56,14.98330592,0.0003303,70.0009,22.8324,267.0596,93.0185,3.9353e-05,3.77e-06,0.0,0 STARLINK-5286,1 55294U 23010AB  23316.53606525  .00000377  00000-0  39353-4 0  9992,2 55294  70.0009  22.8324 0003303 267.0596  93.0185 14.98330592 45737,6950.191,96.107,574.352,569.76,0.0
55294.0,STARLINK-5286,PAYLOAD,2023-11-12 14:28:04,14.98329917,0.0003216,70.0008,22.6641,265.0327,95.0465,6.789e-05,7.17e-06,0.0,0 STARLINK-5286,1 55294U 23010AB  23316.60282498  .00000717  00000-0  67890-4 0  9994,2 55294  70.0008  22.6641 0003216 265.0327  95.0465 14.98329917 45449,6950.193,96.107,574.293,569.823,0.0
55294.0,STARLINK-5286,PAYLOAD,2023-11-12 22:28:44,14.98333785,0.0003178,70.0009,21.8227,267.1199,92.9597,3.9189e-05,3.75e-06,0.0,0 STARLINK-5286,1 55294U 23010AB  23316.93662276  .00000375  00000-0  39189-4 0  9996,2 55294  70.0009  21.8227 0003178 267.1199  92.9597 14.98333785 45796,6950.181,96.107,574.255,569.837,0.0
55294.0,STARLINK-5286,PAYLOAD,2023-11-13 11:17:48,14.98338582,0.0003253,70.0006,20.4763,268.957,91.1216,0.00010086,1.111e-05,0.0,0 STARLINK-5286,1 55294U 23010AB  23317.47069625  .00001111  00000-0  10086-3 0  9998,2 55294  70.0006  20.4763 0003253 268.9570  91.1216 14.98338582 45574,6950.166,96.106,574.292,569.77,0.0
55294.0,STARLINK-5286,PAYLOAD,2023-11-13 12:53:56,14.98338963,0.0003237,70.0006,20.3079,269.214,90.8648,0.00010642,1.177e-05,0.0,0 STARLINK-5286,1 55294U 23010AB  23317.53745553  .00001177  00000-0  10642-3 0  9996,2 55294  70.0006  20.3079 0003237 269.2140  90.8648 14.98338963 45884,6950.165,96.106,574.28,569.78,0.0
55294.0,STARLINK-5286,PAYLOAD,2023-11-14 11:19:49,14.98327663,0.0002826,70.0011,17.9515,264.3278,95.7559,-1.4768e-05,-2.69e-06,0.0,0 STARLINK-5286,1 55294U 23010AB  23318.47210397 -.00000269  00000-0 -14768-4 0  9990,2 55294  70.0011  17.9515 0002826 264.3278  95.7559 14.98327663 45721,6950.2,96.107,574.029,570.101,0.0
55294.0,STARLINK-5286,PAYLOAD,2023-11-14 14:32:05,14.98328585,0.0002879,70.0009,17.6144,265.7219,94.3611,1.6611e-05,1.05e-06,0.0,0 STARLINK-5286,1 55294U 23010AB  23318.60562268  .00000105  00000-0  16611-4 0  9998,2 55294  70.0009  17.6144 0002879 265.7219  94.3611 14.98328585 46045,6950.197,96.107,574.063,570.061,0.0
55294.0,STARLINK-5286,PAYLOAD,2023-11-14 20:56:37,14.98347216,0.0002922,70.0012,16.9406,273.261,86.8215,-0.00030355,-3.715e-05,0.0,0 STARLINK-5286,1 55294U 23010AB  23318.87265728 -.00003715  00000-0 -30355-3 0  9990,2 55294  70.0012  16.9406 0002922 273.2610  86.8215 14.98347216 46082,6950.14,96.106,574.035,569.974,0.0
55294.0,STARLINK-5286,PAYLOAD,2023-11-15 11:21:50,14.98341682,0.0002701,70.0007,15.4266,263.3679,96.7173,-0.0002039,-2.526e-05,0.0,0 STARLINK-5286,1 55294U 23010AB  23319.47349883 -.00002526  00000-0 -20390-3 0  9999,2 55294  70.0007  15.4266 0002701 263.3679  96.7173 14.98341682 45874,6950.157,96.106,573.899,570.145,0.0
55294.0,STARLINK-5286,PAYLOAD,2023-11-15 12:57:58,14.98341551,0.0002716,70.0007,15.258,263.978,96.107,-0.00019182,-2.382e-05,0.0,0 STARLINK-5286,1 55294U 23010AB  23319.54025818 -.00002382  00000-0 -19182-3 0  9993,2 55294  70.0007  15.2580 0002716 263.9780  96.1070 14.98341551 46186,6950.157,96.106,573.91,570.135,0.0
55294.0,STARLINK-5286,PAYLOAD,2023-11-15 20:58:38,14.98356347,0.0002777,70.0016,14.4155,277.7473,82.3371,-0.00053661,-6.494e-05,0.0,0 STARLINK-5286,1 55294U 23010AB  23319.87405623 -.00006494  00000-0 -53661-3 0  9993,2 55294  70.0016  14.4155 0002777 277.7473  82.3371 14.98356347 46230,6950.111,96.105,573.906,570.046,0.0
55294.0,STARLINK-5286,PAYLOAD,2023-11-16 03:23:11,14.98323699,0.0002731,70.0014,13.745,263.1179,96.967,1.3e-05,6.2e-07,0.0,0 STARLINK-5286,1 55294U 23010AB  23320.14110496  .00000062  00000-0  13000-4 0  9993,2 55294  70.0014  13.7450 0002731 263.1179  96.9670 14.98323699 45977,6950.212,96.107,573.975,570.179,0.0
55294.0,STARLINK-5286,PAYLOAD,2023-11-16 09:47:43,14.98322915,0.0002837,70.0007,13.0704,265.1854,94.8981,-6.5104e-06,-1.71e-06,0.0,0 STARLINK-5286,1 55294U 23010AB  23320.40814687 -.00000171  00000-0 -65104-5 0  9991,2 55294  70.0007  13.0704 0002837 265.1854  94.8981 14.98322915 46314,6950.215,96.107,574.052,570.108,0.0
55294.0,STARLINK-5286,PAYLOAD,2023-11-16 21:00:40,14.98323354,0.0002522,70.0014,11.8912,274.3532,85.7339,-1.6427e-05,-2.89e-06,0.0,0 STARLINK-5286,1 55294U 23010AB  23320.87547032 -.00000289  00000-0 -16427-4 0  9992,2 55294  70.0014  11.8912 0002522 274.3532  85.7339 14.98323354 46386,6950.213,96.107,573.831,570.326,0.0
55294.0,STARLINK-5286,PAYLOAD,2023-11-17 03:25:12,14.98327633,0.0003229,70.0004,11.2178,271.0843,88.9946,9.4396e-05,1.033e-05,0.0,0 STARLINK-5286,1 55294U 23010AB  23321.14250259  .00001033  00000-0  94396-4 0  9992,2 55294  70.0004  11.2178 0003229 271.0843  88.9946 14.98327633 46122,6950.2,96.107,574.309,569.821,0.0
55294.0,STARLINK-5286,PAYLOAD,2023-11-17 13:02:00,14.98333955,0.000291,70.0003,10.2081,269.0081,91.0745,8.4362e-05,9.14e-06,0.0,0 STARLINK-5286,1 55294U 23010AB  23321.54305896  .00000914  00000-0  84362-4 0  9993,2 55294  70.0003  10.2081 0002910 269.0081  91.0745 14.98333955 46485,6950.181,96.107,574.068,570.023,0.0
55294.0,STARLINK-5286,PAYLOAD,2023-11-18 03:27:13,14.98324712,0.0003155,70.0002,8.6928,272.4291,87.6507,0.00011874,1.324e-05,0.0,0 STARLINK-5286,1 55294U 23010AB  23322.14390293  .00001324  00000-0  11874-3 0  9998,2 55294  70.0002   8.6928 0003155 272.4291  87.6507 14.98324712 46273,6950.209,96.107,574.267,569.881,0.0
55294.0,STARLINK-5286,PAYLOAD,2023-11-18 11:27:53,14.98327123,0.0002834,70.0006,7.8529,267.4953,92.5882,7.488e-05,8.01e-06,0.0,0 STARLINK-5286,1 55294U 23010AB  23322.47770335  .00000801  00000-0  74880-4 0  9999,2 55294  70.0006   7.8529 0002834 267.4953  92.5882 14.98327123 46626,6950.202,96.107,574.036,570.097,0.0
55294.0,STARLINK-5286,PAYLOAD,2023-11-18 21:04:41,14.98329218,0.0003005,70.0002,6.8417,271.6133,88.4681,3.4972e-05,3.24e-06,0.0,0 STARLINK-5286,1 55294U 23010AB  23322.87826289  .00000324  00000-0  34972-4 0  9991,2 55294  70.0002   6.8417 0003005 271.6133  88.4681 14.98329218 46689,6950.195,96.107,574.149,569.972,0.0
55294.0,STARLINK-5286,PAYLOAD,2023-11-19 03:29:13,14.98333391,0.0003142,70.0002,6.1682,271.5504,88.5295,-6.3181e-06,-1.68e-06,0.0,0 STARLINK-5286,1 55294U 23010AB  23323.14530054 -.00000168  00000-0 -63181-5 0  9997,2 55294  70.0002   6.1682 0003142 271.5504  88.5295 14.98333391 46420,6950.182,96.107,574.231,569.864,0.0
55294.0,STARLINK-5286,PAYLOAD,2023-11-19 13:06:02,14.98335083,0.0003009,70.0002,5.1589,269.2873,90.7941,-2.7951e-06,-1.26e-06,0.0,0 STARLINK-5286,1 55294U 23010AB  23323.54585841 -.00000126  00000-0 -27951-5 0  9994,2 55294  70.0002   5.1589 0003009 269.2873  90.7941 14.98335083 46782,6950.177,96.107,574.133,569.951,0.0
55294.0,STARLINK-5286,PAYLOAD,2023-11-20 03:31:14,14.98330381,0.0002865,70.0004,3.6436,267.9015,92.1816,2.697e-05,2.29e-06,0.0,0 STARLINK-5286,1 55294U 23010AB  23324.14669904  .00000229  00000-0  26970-4 0  9995,2 55294  70.0004   3.6436 0002865 267.9015  92.1816 14.98330381 46570,6950.192,96.107,574.048,570.065,0.0
55294.0,STARLINK-5286,PAYLOAD,2023-11-20 13:08:03,14.98331644,0.0002751,70.0003,2.6338,266.4879,93.5966,3.6329e-05,3.41e-06,0.0,0 STARLINK-5286,1 55294U 23010AB  23324.54725817  .00000341  00000-0  36329-4 0  9999,2 55294  70.0003   2.6338 0002751 266.4879  93.5966 14.98331644 46939,6950.188,96.107,573.965,570.141,0.0
55294.0,STARLINK-5286,PAYLOAD,2023-11-20 19:32:35,14.98336579,0.0003008,70.0002,1.96,272.0903,87.9912,-7.5851e-05,-9.98e-06,0.0,0 STARLINK-5286,1 55294U 23010AB  23324.81429643 -.00000998  00000-0 -75851-4 0  9990,2 55294  70.0002   1.9600 0003008 272.0903  87.9912 14.98336579 46973,6950.173,96.107,574.128,569.947,0.0
